NORAD_CAT_ID,OBJECT_NAME,OBJECT_TYPE,EPOCH,MEAN_MOTION,ECCENTRICITY,INCLINATION,RA_OF_ASC_NODE,ARG_OF_PERICENTER,MEAN_ANOMALY,BSTAR,MEAN_MOTION_DOT,MEAN_MOTION_DDOT,TLE_LINE0,TLE_LINE1,TLE_LINE2,SEMIMAJOR_AXIS,PERIOD,APOGEE,PERIGEE,DECAYED
55789.0,STARLINK-5815,PAYLOAD,2023-04-15 21:16:02,15.69929108,0.0002948,70.0015,33.9301,247.2216,112.8669,-1.981e-06,-4.51e-06,0.0,0 STARLINK-5815,1 55789U 23028BA  23105.88614114 -.00000451  00000-0 -19810-5 0  9999,2 55789  70.0015  33.9301 0002948 247.2216 112.8669 15.69929108  7443,6737.237,91.724,361.088,357.116,0.0
55789.0,STARLINK-5815,PAYLOAD,2023-04-16 04:54:48,15.69919135,0.0003506,69.9985,33.0286,276.8963,83.1834,-1.7219e-05,-2.282e-05,0.0,0 STARLINK-5815,1 55789U 23028BA  23106.20473297 -.00002282  00000-0 -17219-4 0  9995,2 55789  69.9985  33.0286 0003506 276.8963  83.1834 15.69919135  7484,6737.265,91.724,361.492,356.768,0.0
55789.0,STARLINK-5815,PAYLOAD,2023-04-16 21:44:05,15.69915975,0.0003185,70.0002,31.062,268.1502,91.9329,-5.2623e-06,-8.45e-06,0.0,0 STARLINK-5815,1 55789U 23028BA  23106.90561909 -.00000845  00000-0 -52623-5 0  9992,2 55789  70.0002  31.0620 0003185 268.1502  91.9329 15.69915975  7601,6737.274,91.725,361.285,356.994,0.0
55789.0,STARLINK-5815,PAYLOAD,2023-04-17 05:22:50,15.69928622,0.0003115,69.9996,30.1649,262.2389,97.8453,3.1934e-06,1.71e-06,0.0,0 STARLINK-5815,1 55789U 23028BA  23107.22419243  .00000171  00000-0  31934-5 0  9993,2 55789  69.9996  30.1649 0003115 262.2389  97.8453 15.69928622  7653,6737.238,91.724,361.202,357.005,0.0
55789.0,STARLINK-5815,PAYLOAD,2023-04-17 20:40:22,15.69926811,0.0002748,69.9997,28.373,256.6018,103.4872,-8.2322e-06,-1.202e-05,0.0,0 STARLINK-5815,1 55789U 23028BA  23107.86136615 -.00001202  00000-0 -82322-5 0  9997,2 55789  69.9997  28.3730 0002748 256.6018 103.4872 15.69926811  7759,6737.243,91.724,360.96,357.257,0.0
55789.0,STARLINK-5815,PAYLOAD,2023-04-18 04:19:07,15.69929817,0.0002843,70.0009,27.4785,256.8425,103.2454,-2.135e-05,-2.779e-05,0.0,0 STARLINK-5815,1 55789U 23028BA  23108.17995005 -.00002779  00000-0 -21350-4 0  9991,2 55789  70.0009  27.4785 0002843 256.8425 103.2454 15.69929817  7805,6737.235,91.724,361.015,357.184,0.0
55789.0,STARLINK-5815,PAYLOAD,2023-04-19 04:47:08,15.69936272,0.0003371,69.9993,24.6118,261.4038,98.6776,1.6819e-05,1.811e-05,0.0,0 STARLINK-5815,1 55789U 23028BA  23109.19940561  .00001811  00000-0  16819-4 0  9999,2 55789  69.9993  24.6118 0003371 261.4038  98.6776 15.69936272  7955,6737.216,91.723,361.352,356.81,0.0
55789.0,STARLINK-5815,PAYLOAD,2023-04-20 03:43:26,15.69917159,0.0002334,70.0007,21.9257,256.5696,103.524,2.3233e-05,2.581e-05,0.0,0 STARLINK-5815,1 55789U 23028BA  23110.15516581  .00002581  00000-0  23233-4 0  9991,2 55789  70.0007  21.9257 0002334 256.5696 103.5240 15.69917159  8104,6737.271,91.725,360.708,357.564,0.0
55789.0,STARLINK-5815,PAYLOAD,2023-04-21 04:11:27,15.69939846,0.0003368,69.998,19.0584,253.5862,106.4963,1.364e-05,1.429e-05,0.0,0 STARLINK-5815,1 55789U 23028BA  23111.17462369  .00001429  00000-0  13640-4 0  9999,2 55789  69.9980  19.0584 0003368 253.5862 106.4963 15.69939846  8260,6737.206,91.723,361.34,356.802,0.0
55789.0,STARLINK-5815,PAYLOAD,2023-04-21 17:57:13,15.69931792,0.0002618,69.9986,17.4427,271.935,88.1546,1.679e-05,1.807e-05,0.0,0 STARLINK-5815,1 55789U 23028BA  23111.74807769  .00001807  00000-0  16790-4 0  9998,2 55789  69.9986  17.4427 0002618 271.9350  88.1546 15.69931792  8352,6737.229,91.724,360.858,357.33,0.0
55789.0,STARLINK-5815,PAYLOAD,2023-04-22 03:07:44,15.69932772,0.000303,69.9978,16.3729,267.1498,92.9351,1.5409e-05,1.641e-05,0.0,0 STARLINK-5815,1 55789U 23028BA  23112.13037616  .00001641  00000-0  15409-4 0  9990,2 55789  69.9978  16.3729 0003030 267.1498  92.9351 15.69932772  8429,6737.226,91.724,361.133,357.05,0.0
55789.0,STARLINK-5815,PAYLOAD,2023-04-22 19:57:02,15.69919895,0.0003605,69.9977,14.4019,259.189,100.89,-1.5455e-05,-2.071e-05,0.0,0 STARLINK-5815,1 55789U 23028BA  23112.83127938 -.00002071  00000-0 -15455-4 0  9995,2 55789  69.9977  14.4019 0003605 259.1890 100.8900 15.69919895  8525,6737.263,91.724,361.557,356.699,0.0
55789.0,STARLINK-5815,PAYLOAD,2023-04-23 02:04:03,15.69921458,0.0003357,69.9977,13.6851,258.2626,101.8193,-1.3128e-05,-1.791e-05,0.0,0 STARLINK-5815,1 55789U 23028BA  23113.08614594 -.00001791  00000-0 -13128-4 0  9995,2 55789  69.9977  13.6851 0003357 258.2626 101.8193 15.69921458  8579,6737.259,91.724,361.385,356.862,0.0
55789.0,STARLINK-5815,PAYLOAD,2023-04-23 17:21:32,15.69934546,0.000384,69.9992,11.8948,251.5352,108.5427,2.9225e-06,1.39e-06,0.0,0 STARLINK-5815,1 55789U 23028BA  23113.72329696  .00000139  00000-0  29225-5 0  9991,2 55789  69.9992  11.8948 0003840 251.5352 108.5427 15.69934546  8668,6737.221,91.724,361.673,356.499,0.0
55789.0,STARLINK-5815,PAYLOAD,2023-04-23 20:25:02,15.69935749,0.0003839,69.9991,11.5365,251.2669,108.8111,3.7315e-06,2.36e-06,0.0,0 STARLINK-5815,1 55789U 23028BA  23113.85072846  .00000236  00000-0  37315-5 0  9994,2 55789  69.9991  11.5365 0003839 251.2669 108.8111 15.69935749  8695,6737.218,91.723,361.669,356.496,0.0
55789.0,STARLINK-5815,PAYLOAD,2023-04-24 04:03:47,15.6994252,0.0003668,69.9995,10.6396,259.3853,100.693,2.5805e-05,2.893e-05,0.0,0 STARLINK-5815,1 55789U 23028BA  23114.16930286  .00002893  00000-0  25805-4 0  9991,2 55789  69.9995  10.6396 0003668 259.3853 100.6930 15.69942520  8736,6737.198,91.723,361.535,356.592,0.0
55789.0,STARLINK-5815,PAYLOAD,2023-04-25 04:31:54,15.69887088,0.000325,69.9996,7.7759,251.015,109.0693,-1.3988e-05,-1.891e-05,0.0,0 STARLINK-5815,1 55789U 23028BA  23115.18882692 -.00001891  00000-0 -13988-4 0  9999,2 55789  69.9996   7.7759 0003250 251.0150 109.0693 15.69887088  8908,6737.357,91.726,361.412,357.032,0.0
55789.0,STARLINK-5815,PAYLOAD,2023-04-25 16:45:53,15.69917457,0.0003465,69.9995,6.341,259.4416,100.639,8.8681e-07,-1.06e-06,0.0,0 STARLINK-5815,1 55789U 23028BA  23115.69854024 -.00000106  00000-0  88681-6 0  9994,2 55789  69.9995   6.3410 0003465 259.4416 100.6390 15.69917457  8973,6737.27,91.725,361.47,356.801,0.0
55789.0,STARLINK-5815,PAYLOAD,2023-04-26 01:56:22,15.69941465,0.0003083,69.9999,5.2665,251.1434,108.9427,2.6864e-05,3.021e-05,0.0,0 STARLINK-5815,1 55789U 23028BA  23116.08082002  .00003021  00000-0  26864-4 0  9998,2 55789  69.9999   5.2665 0003083 251.1434 108.9427 15.69941465  9038,6737.201,91.723,361.144,356.989,0.0
55789.0,STARLINK-5815,PAYLOAD,2023-04-26 20:17:25,15.69903733,0.0004116,69.9998,3.1178,274.809,85.2636,3.4831e-05,3.974e-05,0.0,0 STARLINK-5815,1 55789U 23028BA  23116.84543825  .00003974  00000-0  34831-4 0  9997,2 55789  69.9998   3.1178 0004116 274.8090  85.2636 15.69903733  9160,6737.309,91.725,361.947,356.401,0.0
55789.0,STARLINK-5815,PAYLOAD,2023-04-28 01:20:41,15.69940758,0.000346,69.9984,359.7103,266.492,93.588,-1.5461e-05,-2.073e-05,0.0,0 STARLINK-5815,1 55789U 23028BA  23118.05604013 -.00002073  00000-0 -15461-4 0  9998,2 55789  69.9984 359.7103 0003460 266.4920  93.5880 15.69940758  9344,6737.203,91.723,361.4,356.737,0.0
55789.0,STARLINK-5815,PAYLOAD,2023-04-28 08:59:27,15.6993727,0.0003477,69.997,358.8195,259.0495,101.0309,-3.5145e-05,-4.439e-05,0.0,0 STARLINK-5815,1 55789U 23028BA  23118.37462542 -.00004439  00000-0 -35145-4 0  9991,2 55789  69.9970 358.8195 0003477 259.0495 101.0309 15.69937270  9406,6737.213,91.723,361.421,356.736,0.0
55789.0,STARLINK-5815,PAYLOAD,2023-04-29 01:48:43,15.69922687,0.0002974,69.9993,356.8457,253.9542,106.1327,8.9671e-06,8.66e-06,0.0,0 STARLINK-5815,1 55789U 23028BA  23119.07550805  .00000866  00000-0  89671-5 0  9991,2 55789  69.9993 356.8457 0002974 253.9542 106.1327 15.69922687  9500,6737.255,91.724,361.124,357.117,0.0
55789.0,STARLINK-5815,PAYLOAD,2023-04-30 02:16:45,15.69917073,0.0002849,69.9983,353.9809,249.2952,110.7938,2.307e-05,2.561e-05,0.0,0 STARLINK-5815,1 55789U 23028BA  23120.09497623  .00002561  00000-0  23070-4 0  9997,2 55789  69.9983 353.9809 0002849 249.2952 110.7938 15.69917073  9661,6737.271,91.725,361.056,357.217,0.0
55789.0,STARLINK-5815,PAYLOAD,2023-05-01 02:44:49,15.69903562,0.0002557,69.9982,351.114,262.8407,97.2498,-9.4033e-06,-1.342e-05,0.0,0 STARLINK-5815,1 55789U 23028BA  23121.11446152 -.00001342  00000-0 -94033-5 0  9998,2 55789  69.9982 351.1140 0002557 262.8407  97.2498 15.69903562  9826,6737.31,91.725,360.898,357.452,0.0
55789.0,STARLINK-5815,PAYLOAD,2023-05-01 18:02:19,15.69923507,0.0003396,69.9965,349.3155,269.8657,90.2149,5.748e-06,4.78e-06,0.0,0 STARLINK-5815,1 55789U 23028BA  23121.75161328  .00000478  00000-0  57480-5 0  9999,2 55789  69.9965 349.3155 0003396 269.8657  90.2149 15.69923507  9926,6737.253,91.724,361.406,356.83,0.0
55789.0,STARLINK-5815,PAYLOAD,2023-05-02 01:41:04,15.69928866,0.0002763,69.9989,348.4269,268.4652,91.6227,1.4764e-05,1.563e-05,0.0,0 STARLINK-5815,1 55789U 23028BA  23122.07019253  .00001563  00000-0  14764-4 0  9997,2 55789  69.9989 348.4269 0002763 268.4652  91.6227 15.69928866  9975,6737.238,91.724,360.964,357.241,0.0
55789.0,STARLINK-5815,PAYLOAD,2023-05-02 18:30:21,15.69922506,0.0003214,69.9976,346.4544,259.1774,100.906,1.3775e-06,-4.7e-07,0.0,0 STARLINK-5815,1 55789U 23028BA  23122.77108162 -.00000047  00000-0  13775-5 0  9991,2 55789  69.9976 346.4544 0003214 259.1774 100.9060 15.69922506 10087,6737.256,91.724,361.286,356.955,0.0
55789.0,STARLINK-5815,PAYLOAD,2023-05-02 21:33:51,15.69925102,0.0003096,69.9988,346.0992,251.7077,108.3782,5.5489e-06,4.55e-06,0.0,0 STARLINK-5815,1 55789U 23028BA  23122.89851275  .00000455  00000-0  55489-5 0  9994,2 55789  69.9988 346.0992 0003096 251.7077 108.3782 15.69925102 10117,6737.248,91.724,361.199,357.027,0.0
55789.0,STARLINK-5815,PAYLOAD,2023-05-03 08:16:07,15.6991396,0.0003019,69.9988,344.843,276.3788,83.7064,2.4081e-05,2.683e-05,0.0,0 STARLINK-5815,1 55789U 23028BA  23123.34453659  .00002683  00000-0  24081-4 0  9997,2 55789  69.9988 344.8430 0003019 276.3788  83.7064 15.69913960 10182,6737.28,91.725,361.179,357.111,0.0
